OBJECT_NAME,OBJECT_ID,EPOCH,MEAN_MOTION,ECCENTRICITY,INCLINATION,RA_OF_ASC_NODE,ARG_OF_PERICENTER,MEAN_ANOMALY,EPHEMERIS_TYPE,CLASSIFICATION_TYPE,NORAD_CAT_ID,ELEMENT_SET_NO,REV_AT_EPOCH,BSTAR,MEAN_MOTION_DOT,MEAN_MOTION_DDOT
TIANMU-1 21,2023-208C,2026-06-07T20:39:02.827296,15.34913413,.0006719,97.4492,278.3808,1.7204,358.4061,0,U,58662,999,13613,.31051E-3,.10442E-3,0
TIANMU-1 22,2023-208D,2026-06-07T20:34:12.917280,15.30929537,.0004093,97.4487,275.0550,35.2129,324.9381,0,U,58663,999,13590,.29084E-3,.8617E-4,0
TIANMU-1 15,2024-004A,2026-06-07T20:36:38.102976,15.26928527,.0007619,97.4674,345.0481,33.6797,326.4925,0,U,58700,999,13435,.25494E-3,.6672E-4,0
TIANMU-1 16,2024-004B,2026-06-07T20:18:42.939648,15.26654005,.0006727,97.4620,344.2831,38.2761,321.8954,0,U,58701,999,13435,.25506E-3,.6618E-4,0
TIANMU-1 17,2024-004C,2026-06-07T19:57:45.734112,15.26653462,.0006395,97.4649,344.7501,43.7434,316.4310,0,U,58702,999,13434,.24339E-3,.6312E-4,0
TIANMU-1 18,2024-004D,2026-06-07T21:00:24.349248,15.26913021,.0004897,97.4667,345.0431,43.2466,316.9156,0,U,58703,999,13435,.25116E-3,.6566E-4,0
INSAT-3DS,2024-033A,2026-06-07T20:39:45.258336,1.00273290,.0001295,0.0140,156.0773,276.7065,215.4927,0,U,58990,999,4697,0,-.141E-5,0
METEOR-M2 4,2024-039A,2026-06-07T21:33:31.474080,14.22428660,.0006743,98.7012,118.3133,187.6720,172.4356,0,U,59051,999,11794,.33202E-4,.3E-6,0
GOES 19,2024-119A,2026-06-07T18:12:08.597376,1.00272173,.0000466,0.0442,133.9148,5.7638,314.3267,0,U,60133,999,687,0,-.233E-5,0
MTG-S1,2025-143A,2026-06-07T16:50:00.488256,1.00271639,.0001072,0.6118,336.7868,31.0379,137.3027,0,U,64723,999,332,0,-.17E-6,0
METOP-SGA1,2025-172A,2026-06-07T16:57:49.521024,14.21508370,.0000953,98.6647,218.6074,87.2494,272.8792,0,U,65159,999,4244,.47043E-4,.6E-6,0
FENGYUN 3H,2025-219A,2026-06-07T17:44:53.742624,14.19918894,.0001648,98.6766,99.6925,84.4347,275.7018,0,U,65815,999,3604,.57944E-4,.8E-6,0
