TIANMU-1 21             
1 58662U 23208C   26158.86044939  .00010442  00000+0  31051-3 0  9990
2 58662  97.4492 278.3808 0006719   1.7204 358.4061 15.34913413136132
TIANMU-1 22             
1 58663U 23208D   26158.85709395  .00008617  00000+0  29084-3 0  9998
2 58663  97.4487 275.0550 0004093  35.2129 324.9381 15.30929537135903
TIANMU-1 15             
1 58700U 24004A   26158.85877434  .00006672  00000+0  25494-3 0  9995
2 58700  97.4674 345.0481 0007619  33.6797 326.4925 15.26928527134356
TIANMU-1 16             
1 58701U 24004B   26158.84633032  .00006618  00000+0  25506-3 0  9993
2 58701  97.4620 344.2831 0006727  38.2761 321.8954 15.26654005134357
TIANMU-1 17             
1 58702U 24004C   26158.83177933  .00006312  00000+0  24339-3 0  9990
2 58702  97.4649 344.7501 0006395  43.7434 316.4310 15.26653462134348
TIANMU-1 18             
1 58703U 24004D   26158.87528182  .00006566  00000+0  25116-3 0  9996
2 58703  97.4667 345.0431 0004897  43.2466 316.9156 15.26913021134354
INSAT-3DS               
1 58990U 24033A   26158.86094049 -.00000141  00000+0  00000+0 0  9990
2 58990   0.0140 156.0773 0001295 276.7065 215.4927  1.00273290 46977
METEOR-M2 4             
1 59051U 24039A   26158.89828095  .00000030  00000+0  33202-4 0  9995
2 59051  98.7012 118.3133 0006743 187.6720 172.4356 14.22428660117945
GOES 19                 
1 60133U 24119A   26158.75843284 -.00000233  00000+0  00000+0 0  9990
2 60133   0.0442 133.9148 0000466   5.7638 314.3267  1.00272173  6879
MTG-S1                  
1 64723U 25143A   26158.70139454 -.00000017  00000+0  00000+0 0  9999
2 64723   0.6118 336.7868 0001072  31.0379 137.3027  1.00271639  3324
METOP-SGA1              
1 65159U 25172A   26158.70682316  .00000060  00000+0  47043-4 0  9995
2 65159  98.6647 218.6074 0000953  87.2494 272.8792 14.21508370 42449
FENGYUN 3H              
1 65815U 25219A   26158.73951091  .00000080  00000+0  57944-4 0  9991
2 65815  98.6766  99.6925 0001648  84.4347 275.7018 14.19918894 36045
